CCSDS_OMM_VERS = 2.0
CREATION_DATE  = 
ORIGINATOR     = 

OBJECT_NAME    = SL-16 R/B
OBJECT_ID      = 1993-016B
CENTER_NAME    = EARTH
REF_FRAME      = TEME
TIME_SYSTEM    = UTC
MEAN_ELEMENT_THEORY = SGP/SGP4

EPOCH          = 2025-12-16T19:18:27.758880
MEAN_MOTION    = 14.15287478
ECCENTRICITY   = .00079787
INCLINATION    = 71.0080
RA_OF_ASC_NODE = 29.2666
ARG_OF_PERICENTER = 89.7362
MEAN_ANOMALY   = 270.4675

EPHEMERIS_TYPE = 0
CLASSIFICATION_TYPE = U
NORAD_CAT_ID   = 22566
ELEMENT_SET_NO = 999
REV_AT_EPOCH   = 69044
BSTAR          = .95638762E-4
MEAN_MOTION_DOT = .139E-5
MEAN_MOTION_DDOT = 0

CCSDS_OMM_VERS = 2.0
CREATION_DATE  = 
ORIGINATOR     = 

OBJECT_NAME    = COSMOS 2242
OBJECT_ID      = 1993-024A
CENTER_NAME    = EARTH
REF_FRAME      = TEME
TIME_SYSTEM    = UTC
MEAN_ELEMENT_THEORY = SGP/SGP4

EPOCH          = 2025-12-16T23:35:36.223296
MEAN_MOTION    = 14.96124156
ECCENTRICITY   = .00152157
INCLINATION    = 82.5185
RA_OF_ASC_NODE = 345.7889
ARG_OF_PERICENTER = 218.6190
MEAN_ANOMALY   = 141.3945

EPHEMERIS_TYPE = 0
CLASSIFICATION_TYPE = U
NORAD_CAT_ID   = 22626
ELEMENT_SET_NO = 999
REV_AT_EPOCH   = 76802
BSTAR          = .14618052E-3
MEAN_MOTION_DOT = .1673E-4
MEAN_MOTION_DDOT = 0

CCSDS_OMM_VERS = 2.0
CREATION_DATE  = 
ORIGINATOR     = 

OBJECT_NAME    = SL-16 R/B
OBJECT_ID      = 1993-059B
CENTER_NAME    = EARTH
REF_FRAME      = TEME
TIME_SYSTEM    = UTC
MEAN_ELEMENT_THEORY = SGP/SGP4

EPOCH          = 2025-12-16T23:12:32.675904
MEAN_MOTION    = 14.17213024
ECCENTRICITY   = .00182119
INCLINATION    = 70.9880
RA_OF_ASC_NODE = 185.5719
ARG_OF_PERICENTER = 329.5752
MEAN_ANOMALY   = 30.4313

EPHEMERIS_TYPE = 0
CLASSIFICATION_TYPE = U
NORAD_CAT_ID   = 22803
ELEMENT_SET_NO = 999
REV_AT_EPOCH   = 66781
BSTAR          = -.36909518E-4
MEAN_MOTION_DOT = -.123E-5
MEAN_MOTION_DDOT = 0

CCSDS_OMM_VERS = 2.0
CREATION_DATE  = 
ORIGINATOR     = 

OBJECT_NAME    = ARIANE 40 R/B
OBJECT_ID      = 1993-061H
CENTER_NAME    = EARTH
REF_FRAME      = TEME
TIME_SYSTEM    = UTC
MEAN_ELEMENT_THEORY = SGP/SGP4

EPOCH          = 2025-12-16T22:45:01.768896
MEAN_MOTION    = 14.32804185
ECCENTRICITY   = .00111263
INCLINATION    = 98.5073
RA_OF_ASC_NODE = 56.4013
ARG_OF_PERICENTER = 163.8022
MEAN_ANOMALY   = 196.3520

EPHEMERIS_TYPE = 0
CLASSIFICATION_TYPE = U
NORAD_CAT_ID   = 22830
ELEMENT_SET_NO = 999
REV_AT_EPOCH   = 68225
BSTAR          = .10321276E-3
MEAN_MOTION_DOT = .238E-5
MEAN_MOTION_DDOT = 0

CCSDS_OMM_VERS = 2.0
CREATION_DATE  = 
ORIGINATOR     = 

OBJECT_NAME    = COSMOS 2278
OBJECT_ID      = 1994-023A
CENTER_NAME    = EARTH
REF_FRAME      = TEME
TIME_SYSTEM    = UTC
MEAN_ELEMENT_THEORY = SGP/SGP4

EPOCH          = 2025-12-16T23:47:52.598400
MEAN_MOTION    = 14.14349199
ECCENTRICITY   = .00081047
INCLINATION    = 71.0537
RA_OF_ASC_NODE = 348.1154
ARG_OF_PERICENTER = 172.4707
MEAN_ANOMALY   = 187.6539

EPHEMERIS_TYPE = 0
CLASSIFICATION_TYPE = U
NORAD_CAT_ID   = 23087
ELEMENT_SET_NO = 999
REV_AT_EPOCH   = 63311
BSTAR          = -.83288864E-4
MEAN_MOTION_DOT = -.207E-5
MEAN_MOTION_DDOT = 0

CCSDS_OMM_VERS = 2.0
CREATION_DATE  = 
ORIGINATOR     = 

OBJECT_NAME    = SL-16 R/B
OBJECT_ID      = 1994-023B
CENTER_NAME    = EARTH
REF_FRAME      = TEME
TIME_SYSTEM    = UTC
MEAN_ELEMENT_THEORY = SGP/SGP4

EPOCH          = 2025-12-17T00:07:16.111776
MEAN_MOTION    = 14.15002608
ECCENTRICITY   = .00016195
INCLINATION    = 70.9998
RA_OF_ASC_NODE = 244.5289
ARG_OF_PERICENTER = 14.4905
MEAN_ANOMALY   = 345.6264

EPHEMERIS_TYPE = 0
CLASSIFICATION_TYPE = U
NORAD_CAT_ID   = 23088
ELEMENT_SET_NO = 999
REV_AT_EPOCH   = 63439
BSTAR          = -.53122214E-4
MEAN_MOTION_DOT = -.151E-5
MEAN_MOTION_DDOT = 0

CCSDS_OMM_VERS = 2.0
CREATION_DATE  = 
ORIGINATOR     = 

OBJECT_NAME    = SL-16 R/B
OBJECT_ID      = 1994-074B
CENTER_NAME    = EARTH
REF_FRAME      = TEME
TIME_SYSTEM    = UTC
MEAN_ELEMENT_THEORY = SGP/SGP4

EPOCH          = 2025-12-17T00:05:48.861600
MEAN_MOTION    = 14.79294612
ECCENTRICITY   = .00077649
INCLINATION    = 97.7198
RA_OF_ASC_NODE = 20.1392
ARG_OF_PERICENTER = 123.9658
MEAN_ANOMALY   = 297.9479

EPHEMERIS_TYPE = 0
CLASSIFICATION_TYPE = U
NORAD_CAT_ID   = 23343
ELEMENT_SET_NO = 999
REV_AT_EPOCH   = 67502
BSTAR          = .64919892E-4
MEAN_MOTION_DOT = .434E-5
MEAN_MOTION_DDOT = 0

CCSDS_OMM_VERS = 2.0
CREATION_DATE  = 
ORIGINATOR     = 

OBJECT_NAME    = SL-16 R/B
OBJECT_ID      = 1994-077B
CENTER_NAME    = EARTH
REF_FRAME      = TEME
TIME_SYSTEM    = UTC
MEAN_ELEMENT_THEORY = SGP/SGP4

EPOCH          = 2025-12-16T22:45:29.092896
MEAN_MOTION    = 14.15552172
ECCENTRICITY   = .00048093
INCLINATION    = 70.9814
RA_OF_ASC_NODE = 166.5599
ARG_OF_PERICENTER = 281.6257
MEAN_ANOMALY   = 78.4326

EPHEMERIS_TYPE = 0
CLASSIFICATION_TYPE = U
NORAD_CAT_ID   = 23405
ELEMENT_SET_NO = 999
REV_AT_EPOCH   = 60452
BSTAR          = .11211024E-3
MEAN_MOTION_DOT = .171E-5
MEAN_MOTION_DDOT = 0

CCSDS_OMM_VERS = 2.0
CREATION_DATE  = 
ORIGINATOR     = 

OBJECT_NAME    = ARIANE 40+ R/B
OBJECT_ID      = 1995-021B
CENTER_NAME    = EARTH
REF_FRAME      = TEME
TIME_SYSTEM    = UTC
MEAN_ELEMENT_THEORY = SGP/SGP4

EPOCH          = 2025-12-16T18:39:08.930880
MEAN_MOTION    = 14.39698608
ECCENTRICITY   = .00073078
INCLINATION    = 98.4649
RA_OF_ASC_NODE = 58.3174
ARG_OF_PERICENTER = 39.1384
MEAN_ANOMALY   = 71.9813

EPHEMERIS_TYPE = 0
CLASSIFICATION_TYPE = U
NORAD_CAT_ID   = 23561
ELEMENT_SET_NO = 999
REV_AT_EPOCH   = 60731
BSTAR          = .10573422E-3
MEAN_MOTION_DOT = .287E-5
MEAN_MOTION_DDOT = 0

CCSDS_OMM_VERS = 2.0
CREATION_DATE  = 
ORIGINATOR     = 

OBJECT_NAME    = SL-16 R/B
OBJECT_ID      = 1995-058B
CENTER_NAME    = EARTH
REF_FRAME      = TEME
TIME_SYSTEM    = UTC
MEAN_ELEMENT_THEORY = SGP/SGP4

EPOCH          = 2025-12-17T00:31:24.422016
MEAN_MOTION    = 14.15483931
ECCENTRICITY   = .00149563
INCLINATION    = 71.0224
RA_OF_ASC_NODE = 353.8142
ARG_OF_PERICENTER = 249.9439
MEAN_ANOMALY   = 110.0074

EPHEMERIS_TYPE = 0
CLASSIFICATION_TYPE = U
NORAD_CAT_ID   = 23705
ELEMENT_SET_NO = 999
REV_AT_EPOCH   = 55615
BSTAR          = -.50061212E-4
MEAN_MOTION_DOT = -.146E-5
MEAN_MOTION_DDOT = 0

CCSDS_OMM_VERS = 2.0
CREATION_DATE  = 
ORIGINATOR     = 

OBJECT_NAME    = SL-16 R/B
OBJECT_ID      = 1996-051B
CENTER_NAME    = EARTH
REF_FRAME      = TEME
TIME_SYSTEM    = UTC
MEAN_ELEMENT_THEORY = SGP/SGP4

EPOCH          = 2025-12-17T00:30:34.751520
MEAN_MOTION    = 14.12397365
ECCENTRICITY   = .00194529
INCLINATION    = 70.7595
RA_OF_ASC_NODE = 350.2211
ARG_OF_PERICENTER = 256.0735
MEAN_ANOMALY   = 103.8221

EPHEMERIS_TYPE = 0
CLASSIFICATION_TYPE = U
NORAD_CAT_ID   = 24298
ELEMENT_SET_NO = 999
REV_AT_EPOCH   = 50997
BSTAR          = .31914657E-4
MEAN_MOTION_DOT = .1E-6
MEAN_MOTION_DDOT = 0

CCSDS_OMM_VERS = 2.0
CREATION_DATE  = 
ORIGINATOR     = 

OBJECT_NAME    = ORBVIEW 2 (SEASTAR)
OBJECT_ID      = 1997-037A
CENTER_NAME    = EARTH
REF_FRAME      = TEME
TIME_SYSTEM    = UTC
MEAN_ELEMENT_THEORY = SGP/SGP4

EPOCH          = 2025-12-16T22:59:51.669888
MEAN_MOTION    = 14.35420315
ECCENTRICITY   = .00014765
INCLINATION    = 98.8458
RA_OF_ASC_NODE = 148.1389
ARG_OF_PERICENTER = 325.4525
MEAN_ANOMALY   = 34.6564

EPHEMERIS_TYPE = 0
CLASSIFICATION_TYPE = U
NORAD_CAT_ID   = 24883
ELEMENT_SET_NO = 999
REV_AT_EPOCH   = 49660
BSTAR          = .10617824E-3
MEAN_MOTION_DOT = .258E-5
MEAN_MOTION_DDOT = 0

