SL-16 R/B               
1 22566U 93016B   25350.80448795  .00000139  00000+0  95639-4 0  9998
2 22566  71.0080  29.2666 0007978  89.7362 270.4675 14.15287478690447
COSMOS 2242             
1 22626U 93024A   25350.98305814  .00001673  00000+0  14618-3 0  9998
2 22626  82.5185 345.7889 0015215 218.6190 141.3945 14.96124156768023
SL-16 R/B               
1 22803U 93059B   25350.96704486 -.00000123  00000+0 -36910-4 0  9990
2 22803  70.9880 185.5719 0018211 329.5752  30.4313 14.17213024667818
ARIANE 40 R/B           
1 22830U 93061H   25350.94793714  .00000238  00000+0  10321-3 0  9995
2 22830  98.5073  56.4013 0011126 163.8022 196.3520 14.32804185682256
COSMOS 2278             
1 23087U 94023A   25350.99158100 -.00000207  00000+0 -83289-4 0  9990
2 23087  71.0537 348.1154 0008104 172.4707 187.6539 14.14349199633110
SL-16 R/B               
1 23088U 94023B   25351.00504759 -.00000151  00000+0 -53122-4 0  9990
2 23088  70.9998 244.5289 0001619  14.4905 345.6264 14.15002608634391
SL-16 R/B               
1 23343U 94074B   25351.00403775  .00000434  00000+0  64920-4 0  9996
2 23343  97.7198  20.1392 0007764 123.9658 297.9479 14.79294612675025
SL-16 R/B               
1 23405U 94077B   25350.94825339  .00000171  00000+0  11211-3 0  9996
2 23405  70.9814 166.5599 0004809 281.6257  78.4326 14.15552172604528
ARIANE 40+ R/B          
1 23561U 95021B   25350.77718670  .00000287  00000+0  10573-3 0  9997
2 23561  98.4649  58.3174 0007307  39.1384  71.9813 14.39698608607312
SL-16 R/B               
1 23705U 95058B   25351.02181044 -.00000146  00000+0 -50061-4 0  9998
2 23705  71.0224 353.8142 0014956 249.9439 110.0074 14.15483931556150
SL-16 R/B               
1 24298U 96051B   25351.02123555  .00000010  00000+0  31915-4 0  9998
2 24298  70.7595 350.2211 0019452 256.0735 103.8221 14.12397365509971
ORBVIEW 2 (SEASTAR)     
1 24883U 97037A   25350.95823692  .00000258  00000+0  10618-3 0  9993
2 24883  98.8458 148.1389 0001476 325.4525  34.6564 14.35420315496608
